STARLINK-35722          
1 66218U 25244N   25331.27271451  .00046826  00000+0  11722-2 0  9993
2 66218  53.1605 348.8469 0001282  79.2355 280.8794 15.39652331  5934
STARLINK-35737          
1 66219U 25244P   25331.25002315  .00008110  00000+0  21261-3 0  9997
2 66219  53.1601 348.9031 0001358  99.0889 160.9486 15.39608322  5884
STARLINK-35677          
1 66220U 25244Q   25331.25002315  .00005579  00000+0  14941-3 0  9992
2 66220  53.1601 348.8516 0001411  94.5042 191.2881 15.39608848  5715
STARLINK-35704          
1 66221U 25244R   25331.19385029  .00021826  00000+0  55361-3 0  9996
2 66221  53.1604 349.0634 0001352  25.6526 334.4546 15.39645702  5921
STARLINK-35666          
1 66222U 25244S   25331.25002315  .00002165  00000+0  64098-4 0  9991
2 66222  53.1606 348.7482 0001350 106.1108 231.1760 15.39613318  5839
STARLINK-35664          
1 66223U 25244T   25331.25002315  .00002683  00000+0  77044-4 0  9992
2 66223  53.1607 348.7528 0001657  93.1656 242.2783 15.39616820  5834
STARLINK-35733          
1 66224U 25244U   25331.25002315 -.00000633  00000+0 -58478-5 0  9999
2 66224  53.1608 348.6972 0001578  90.4088 272.6170 15.39618185  5719
STARLINK-35734          
1 66225U 25244V   25331.25002315 -.00000746  00000+0 -86592-5 0  9993
2 66225  53.1607 348.7000 0001548  95.3064 265.8943 15.39616135  5712
STARLINK-34466          
1 66226U 25244W   25331.25002315 -.00002651  00000+0 -56309-4 0  9993
2 66226  53.1606 348.6487 0001282  93.4579 293.4939 15.39619378  6035
STARLINK-34882          
1 66227U 25244X   25331.25002315 -.00002380  00000+0 -49528-4 0  9998
2 66227  53.1606 348.6442 0001260  91.5266 297.2594 15.39619917  6033
STARLINK-35731          
1 66228U 25244Y   25331.25002315 -.00002376  00000+0 -49422-4 0  9997
2 66228  53.1602 348.5967 0002026  84.3509 328.3568 15.39616776  5724
STARLINK-35758          
1 66229U 25244Z   25331.25002315  .00011115  00000+0  28764-3 0  9992
2 66229  53.1601 348.5934 0001967  77.2929 337.2356 15.39599504  5721
