CCSDS_OMM_VERS = 2.0
CREATION_DATE  = 
ORIGINATOR     = 

OBJECT_NAME    = STARLINK-35722
OBJECT_ID      = 2025-244N
CENTER_NAME    = EARTH
REF_FRAME      = TEME
TIME_SYSTEM    = UTC
MEAN_ELEMENT_THEORY = SGP/SGP4

EPOCH          = 2025-11-27T06:32:42.533664
MEAN_MOTION    = 15.39652331
ECCENTRICITY   = .00012827
INCLINATION    = 53.1605
RA_OF_ASC_NODE = 348.8469
ARG_OF_PERICENTER = 79.2355
MEAN_ANOMALY   = 280.8794

EPHEMERIS_TYPE = 0
CLASSIFICATION_TYPE = U
NORAD_CAT_ID   = 66218
ELEMENT_SET_NO = 999
REV_AT_EPOCH   = 593
BSTAR          = .11722033E-2
MEAN_MOTION_DOT = .46826E-3
MEAN_MOTION_DDOT = 0

CCSDS_OMM_VERS = 2.0
CREATION_DATE  = 
ORIGINATOR     = 

OBJECT_NAME    = STARLINK-35737
OBJECT_ID      = 2025-244P
CENTER_NAME    = EARTH
REF_FRAME      = TEME
TIME_SYSTEM    = UTC
MEAN_ELEMENT_THEORY = SGP/SGP4

EPOCH          = 2025-11-27T06:00:02.000160
MEAN_MOTION    = 15.39608322
ECCENTRICITY   = .00013582
INCLINATION    = 53.1601
RA_OF_ASC_NODE = 348.9031
ARG_OF_PERICENTER = 99.0889
MEAN_ANOMALY   = 160.9486

EPHEMERIS_TYPE = 0
CLASSIFICATION_TYPE = U
NORAD_CAT_ID   = 66219
ELEMENT_SET_NO = 999
REV_AT_EPOCH   = 588
BSTAR          = .21260726E-3
MEAN_MOTION_DOT = .811E-4
MEAN_MOTION_DDOT = 0

CCSDS_OMM_VERS = 2.0
CREATION_DATE  = 
ORIGINATOR     = 

OBJECT_NAME    = STARLINK-35677
OBJECT_ID      = 2025-244Q
CENTER_NAME    = EARTH
REF_FRAME      = TEME
TIME_SYSTEM    = UTC
MEAN_ELEMENT_THEORY = SGP/SGP4

EPOCH          = 2025-11-27T06:00:02.000160
MEAN_MOTION    = 15.39608848
ECCENTRICITY   = .00014117
INCLINATION    = 53.1601
RA_OF_ASC_NODE = 348.8516
ARG_OF_PERICENTER = 94.5042
MEAN_ANOMALY   = 191.2881

EPHEMERIS_TYPE = 0
CLASSIFICATION_TYPE = U
NORAD_CAT_ID   = 66220
ELEMENT_SET_NO = 999
REV_AT_EPOCH   = 571
BSTAR          = .14940544E-3
MEAN_MOTION_DOT = .5579E-4
MEAN_MOTION_DDOT = 0

CCSDS_OMM_VERS = 2.0
CREATION_DATE  = 
ORIGINATOR     = 

OBJECT_NAME    = STARLINK-35704
OBJECT_ID      = 2025-244R
CENTER_NAME    = EARTH
REF_FRAME      = TEME
TIME_SYSTEM    = UTC
MEAN_ELEMENT_THEORY = SGP/SGP4

EPOCH          = 2025-11-27T04:39:08.665056
MEAN_MOTION    = 15.39645702
ECCENTRICITY   = .00013521
INCLINATION    = 53.1604
RA_OF_ASC_NODE = 349.0634
ARG_OF_PERICENTER = 25.6526
MEAN_ANOMALY   = 334.4546

EPHEMERIS_TYPE = 0
CLASSIFICATION_TYPE = U
NORAD_CAT_ID   = 66221
ELEMENT_SET_NO = 999
REV_AT_EPOCH   = 592
BSTAR          = .55361024E-3
MEAN_MOTION_DOT = .21826E-3
MEAN_MOTION_DDOT = 0

CCSDS_OMM_VERS = 2.0
CREATION_DATE  = 
ORIGINATOR     = 

OBJECT_NAME    = STARLINK-35666
OBJECT_ID      = 2025-244S
CENTER_NAME    = EARTH
REF_FRAME      = TEME
TIME_SYSTEM    = UTC
MEAN_ELEMENT_THEORY = SGP/SGP4

EPOCH          = 2025-11-27T06:00:02.000160
MEAN_MOTION    = 15.39613318
ECCENTRICITY   = .000135
INCLINATION    = 53.1606
RA_OF_ASC_NODE = 348.7482
ARG_OF_PERICENTER = 106.1108
MEAN_ANOMALY   = 231.1760

EPHEMERIS_TYPE = 0
CLASSIFICATION_TYPE = U
NORAD_CAT_ID   = 66222
ELEMENT_SET_NO = 999
REV_AT_EPOCH   = 583
BSTAR          = .6409846E-4
MEAN_MOTION_DOT = .2165E-4
MEAN_MOTION_DDOT = 0

CCSDS_OMM_VERS = 2.0
CREATION_DATE  = 
ORIGINATOR     = 

OBJECT_NAME    = STARLINK-35664
OBJECT_ID      = 2025-244T
CENTER_NAME    = EARTH
REF_FRAME      = TEME
TIME_SYSTEM    = UTC
MEAN_ELEMENT_THEORY = SGP/SGP4

EPOCH          = 2025-11-27T06:00:02.000160
MEAN_MOTION    = 15.39616820
ECCENTRICITY   = .0001657
INCLINATION    = 53.1607
RA_OF_ASC_NODE = 348.7528
ARG_OF_PERICENTER = 93.1656
MEAN_ANOMALY   = 242.2783

EPHEMERIS_TYPE = 0
CLASSIFICATION_TYPE = U
NORAD_CAT_ID   = 66223
ELEMENT_SET_NO = 999
REV_AT_EPOCH   = 583
BSTAR          = .770442E-4
MEAN_MOTION_DOT = .2683E-4
MEAN_MOTION_DDOT = 0

CCSDS_OMM_VERS = 2.0
CREATION_DATE  = 
ORIGINATOR     = 

OBJECT_NAME    = STARLINK-35733
OBJECT_ID      = 2025-244U
CENTER_NAME    = EARTH
REF_FRAME      = TEME
TIME_SYSTEM    = UTC
MEAN_ELEMENT_THEORY = SGP/SGP4

EPOCH          = 2025-11-27T06:00:02.000160
MEAN_MOTION    = 15.39618185
ECCENTRICITY   = .00015782
INCLINATION    = 53.1608
RA_OF_ASC_NODE = 348.6972
ARG_OF_PERICENTER = 90.4088
MEAN_ANOMALY   = 272.6170

EPHEMERIS_TYPE = 0
CLASSIFICATION_TYPE = U
NORAD_CAT_ID   = 66224
ELEMENT_SET_NO = 999
REV_AT_EPOCH   = 571
BSTAR          = -.5847798E-5
MEAN_MOTION_DOT = -.633E-5
MEAN_MOTION_DDOT = 0

CCSDS_OMM_VERS = 2.0
CREATION_DATE  = 
ORIGINATOR     = 

OBJECT_NAME    = STARLINK-35734
OBJECT_ID      = 2025-244V
CENTER_NAME    = EARTH
REF_FRAME      = TEME
TIME_SYSTEM    = UTC
MEAN_ELEMENT_THEORY = SGP/SGP4

EPOCH          = 2025-11-27T06:00:02.000160
MEAN_MOTION    = 15.39616135
ECCENTRICITY   = .00015484
INCLINATION    = 53.1607
RA_OF_ASC_NODE = 348.7000
ARG_OF_PERICENTER = 95.3064
MEAN_ANOMALY   = 265.8943

EPHEMERIS_TYPE = 0
CLASSIFICATION_TYPE = U
NORAD_CAT_ID   = 66225
ELEMENT_SET_NO = 999
REV_AT_EPOCH   = 571
BSTAR          = -.8659187E-5
MEAN_MOTION_DOT = -.746E-5
MEAN_MOTION_DDOT = 0

CCSDS_OMM_VERS = 2.0
CREATION_DATE  = 
ORIGINATOR     = 

OBJECT_NAME    = STARLINK-34466
OBJECT_ID      = 2025-244W
CENTER_NAME    = EARTH
REF_FRAME      = TEME
TIME_SYSTEM    = UTC
MEAN_ELEMENT_THEORY = SGP/SGP4

EPOCH          = 2025-11-27T06:00:02.000160
MEAN_MOTION    = 15.39619378
ECCENTRICITY   = .00012823
INCLINATION    = 53.1606
RA_OF_ASC_NODE = 348.6487
ARG_OF_PERICENTER = 93.4579
MEAN_ANOMALY   = 293.4939

EPHEMERIS_TYPE = 0
CLASSIFICATION_TYPE = U
NORAD_CAT_ID   = 66226
ELEMENT_SET_NO = 999
REV_AT_EPOCH   = 603
BSTAR          = -.56308784E-4
MEAN_MOTION_DOT = -.2651E-4
MEAN_MOTION_DDOT = 0

CCSDS_OMM_VERS = 2.0
CREATION_DATE  = 
ORIGINATOR     = 

OBJECT_NAME    = STARLINK-34882
OBJECT_ID      = 2025-244X
CENTER_NAME    = EARTH
REF_FRAME      = TEME
TIME_SYSTEM    = UTC
MEAN_ELEMENT_THEORY = SGP/SGP4

EPOCH          = 2025-11-27T06:00:02.000160
MEAN_MOTION    = 15.39619917
ECCENTRICITY   = .000126
INCLINATION    = 53.1606
RA_OF_ASC_NODE = 348.6442
ARG_OF_PERICENTER = 91.5266
MEAN_ANOMALY   = 297.2594

EPHEMERIS_TYPE = 0
CLASSIFICATION_TYPE = U
NORAD_CAT_ID   = 66227
ELEMENT_SET_NO = 999
REV_AT_EPOCH   = 603
BSTAR          = -.49527978E-4
MEAN_MOTION_DOT = -.238E-4
MEAN_MOTION_DDOT = 0

CCSDS_OMM_VERS = 2.0
CREATION_DATE  = 
ORIGINATOR     = 

OBJECT_NAME    = STARLINK-35731
OBJECT_ID      = 2025-244Y
CENTER_NAME    = EARTH
REF_FRAME      = TEME
TIME_SYSTEM    = UTC
MEAN_ELEMENT_THEORY = SGP/SGP4

EPOCH          = 2025-11-27T06:00:02.000160
MEAN_MOTION    = 15.39616776
ECCENTRICITY   = .00020267
INCLINATION    = 53.1602
RA_OF_ASC_NODE = 348.5967
ARG_OF_PERICENTER = 84.3509
MEAN_ANOMALY   = 328.3568

EPHEMERIS_TYPE = 0
CLASSIFICATION_TYPE = U
NORAD_CAT_ID   = 66228
ELEMENT_SET_NO = 999
REV_AT_EPOCH   = 572
BSTAR          = -.49421975E-4
MEAN_MOTION_DOT = -.2376E-4
MEAN_MOTION_DDOT = 0

CCSDS_OMM_VERS = 2.0
CREATION_DATE  = 
ORIGINATOR     = 

OBJECT_NAME    = STARLINK-35758
OBJECT_ID      = 2025-244Z
CENTER_NAME    = EARTH
REF_FRAME      = TEME
TIME_SYSTEM    = UTC
MEAN_ELEMENT_THEORY = SGP/SGP4

EPOCH          = 2025-11-27T06:00:02.000160
MEAN_MOTION    = 15.39599504
ECCENTRICITY   = .00019671
INCLINATION    = 53.1601
RA_OF_ASC_NODE = 348.5934
ARG_OF_PERICENTER = 77.2929
MEAN_ANOMALY   = 337.2356

EPHEMERIS_TYPE = 0
CLASSIFICATION_TYPE = U
NORAD_CAT_ID   = 66229
ELEMENT_SET_NO = 999
REV_AT_EPOCH   = 572
BSTAR          = .28764485E-3
MEAN_MOTION_DOT = .11115E-3
MEAN_MOTION_DDOT = 0

